[{"OBJECT_NAME":"STARLINK-30428","OBJECT_ID":"2023-146R","EPOCH":"2026-03-09T22:05:47.616864","MEAN_MOTION":15.0346827,"ECCENTRICITY":0.00017205,"INCLINATION":43.0019,"RA_OF_ASC_NODE":311.8639,"ARG_OF_PERICENTER":186.633,"MEAN_ANOMALY":173.449,"EPHEMERIS_TYPE":0,"CLASSIFICATION_TYPE":"U","NORAD_CAT_ID":57906,"ELEMENT_SET_NO":999,"REV_AT_EPOCH":13604,"BSTAR":0.0083257401,"MEAN_MOTION_DOT":0.00117025,"MEAN_MOTION_DDOT":0},{"OBJECT_NAME":"OBJECT G","OBJECT_ID":"2024-205G","EPOCH":"2026-03-09T23:05:54.449664","MEAN_MOTION":15.09392775,"ECCENTRICITY":0.00211709,"INCLINATION":97.4199,"RA_OF_ASC_NODE":141.9686,"ARG_OF_PERICENTER":130.0324,"MEAN_ANOMALY":230.2768,"EPHEMERIS_TYPE":0,"CLASSIFICATION_TYPE":"U","NORAD_CAT_ID":61900,"ELEMENT_SET_NO":999,"REV_AT_EPOCH":7318,"BSTAR":0.00059967322,"MEAN_MOTION_DOT":9.576e-5,"MEAN_MOTION_DDOT":0}]
